NORAD_CAT_ID,OBJECT_NAME,OBJECT_TYPE,EPOCH,MEAN_MOTION,ECCENTRICITY,INCLINATION,RA_OF_ASC_NODE,ARG_OF_PERICENTER,MEAN_ANOMALY,BSTAR,MEAN_MOTION_DOT,MEAN_MOTION_DDOT,TLE_LINE0,TLE_LINE1,TLE_LINE2,SEMIMAJOR_AXIS,PERIOD,APOGEE,PERIGEE,DECAYED
53262.0,STARLINK-4085,PAYLOAD,2024-05-03 21:20:00,15.08849574,0.0001249,53.217,343.4162,96.3613,263.7522,6.438e-06,-1.85e-06,0.0,0 STARLINK-4085,1 53262U 22086W   24124.88889075 -.00000185  00000-0  64380-5 0  9993,2 53262  53.2170 343.4162 0001249  96.3613 263.7522 15.08849574 99191,6917.851,95.437,540.58,538.852,0.0
53262.0,STARLINK-4085,PAYLOAD,2024-05-04 00:30:46,15.08848483,0.0001373,53.2172,342.8219,98.2789,261.8359,3.3439e-05,2.44e-06,0.0,0 STARLINK-4085,1 53262U 22086W   24125.02137100  .00000244  00000-0  33439-4 0  9990,2 53262  53.2172 342.8219 0001373  98.2789 261.8359 15.08848483 99030,6917.854,95.437,540.669,538.77,0.0
53262.0,STARLINK-4085,PAYLOAD,2024-05-04 21:10:48,15.08821123,0.0001279,53.2172,338.955,100.6916,259.422,0.00017956,2.57e-05,0.0,0 STARLINK-4085,1 53262U 22086W   24125.88250733  .00002570  00000-0  17956-3 0  9991,2 53262  53.2172 338.9550 0001279 100.6916 259.4220 15.08821123 99165,6917.938,95.439,540.688,538.918,0.0
53262.0,STARLINK-4085,PAYLOAD,2024-05-05 13:04:39,15.08835435,0.000119,53.2173,335.9819,98.2526,261.8601,1.3016e-05,-8.1e-07,0.0,0 STARLINK-4085,1 53262U 22086W   24126.54490568 -.00000081  00000-0  13016-4 0  9997,2 53262  53.2173 335.9819 0001190  98.2526 261.8601 15.08835435 99264,6917.894,95.438,540.583,538.936,0.0
53262.0,STARLINK-4085,PAYLOAD,2024-05-05 14:40:02,15.0883653,0.0001191,53.2173,335.6853,98.8472,261.2655,2.3174e-05,8.1e-07,0.0,0 STARLINK-4085,1 53262U 22086W   24126.61114452  .00000081  00000-0  23174-4 0  9995,2 53262  53.2173 335.6853 0001191  98.8472 261.2655 15.08836530 99457,6917.891,95.438,540.58,538.932,0.0
53262.0,STARLINK-4085,PAYLOAD,2024-05-05 21:01:35,15.08841495,0.0001199,53.2175,334.4977,99.1908,260.9219,6.8129e-05,7.97e-06,0.0,0 STARLINK-4085,1 53262U 22086W   24126.87610028  .00000797  00000-0  68129-4 0  9996,2 53262  53.2175 334.4977 0001199  99.1908 260.9219 15.08841495 99312,6917.876,95.437,540.57,538.911,0.0
53262.0,STARLINK-4085,PAYLOAD,2024-05-06 06:33:54,15.0883347,0.0001185,53.2174,332.7134,96.6769,263.4358,0.00023606,3.47e-05,0.0,0 STARLINK-4085,1 53262U 22086W   24127.27354315  .00003470  00000-0  23606-3 0  9996,2 53262  53.2174 332.7134 0001185  96.6769 263.4358 15.08833470 99551,6917.9,95.438,540.585,538.946,0.0
53262.0,STARLINK-4085,PAYLOAD,2024-05-06 22:27:44,15.08847925,0.0001256,53.218,329.7403,88.9452,271.1684,0.00022244,3.255e-05,0.0,0 STARLINK-4085,1 53262U 22086W   24127.93593531  .00003255  00000-0  22244-3 0  9992,2 53262  53.2180 329.7403 0001256  88.9452 271.1684 15.08847925 99654,6917.856,95.437,540.59,538.852,0.0
53262.0,STARLINK-4085,PAYLOAD,2024-05-07 06:24:41,15.08838701,0.0001406,53.2174,328.2527,85.4621,274.6531,0.00011663,1.569e-05,0.0,0 STARLINK-4085,1 53262U 22086W   24128.26714576  .00001569  00000-0  11663-3 0  9992,2 53262  53.2174 328.2527 0001406  85.4621 274.6531 15.08838701 99522,6917.884,95.438,540.722,538.777,0.0
53262.0,STARLINK-4085,PAYLOAD,2024-05-07 22:18:32,15.08838339,0.0001289,53.2172,325.2793,85.9811,274.1328,4.3716e-05,4.08e-06,0.0,0 STARLINK-4085,1 53262U 22086W   24128.92954780  .00000408  00000-0  43716-4 0  9994,2 53262  53.2172 325.2793 0001289  85.9811 274.1328 15.08838339 99804,6917.885,95.438,540.642,538.859,0.0
53262.0,STARLINK-4085,PAYLOAD,2024-05-08 12:37:00,15.08842316,0.0001303,53.2165,322.6034,85.3836,274.7305,4.7844e-05,4.74e-06,0.0,0 STARLINK-4085,1 53262U 22086W   24129.52570597  .00000474  00000-0  47844-4 0  9990,2 53262  53.2165 322.6034 0001303  85.3836 274.7305 15.08842316 99714,6917.873,95.437,540.64,538.837,0.0
53262.0,STARLINK-4085,PAYLOAD,2024-05-08 20:33:56,15.08850246,0.0001232,53.2173,321.1166,87.7264,272.3869,2.7757e-05,1.54e-06,0.0,0 STARLINK-4085,1 53262U 22086W   24129.85690059  .00000154  00000-0  27757-4 0  9998,2 53262  53.2173 321.1166 0001232  87.7264 272.3869 15.08850246 99940,6917.849,95.437,540.566,538.862,0.0
53262.0,STARLINK-4085,PAYLOAD,2024-05-09 06:06:15,15.08846834,0.0001089,53.2164,319.3312,93.3864,266.7253,3.2377e-06,-2.36e-06,0.0,0 STARLINK-4085,1 53262U 22086W   24130.25434216 -.00000236  00000-0  32377-5 0  9992,2 53262  53.2164 319.3312 0001089  93.3864 266.7253 15.08846834100003,6917.86,95.437,540.478,538.971,0.0
53262.0,STARLINK-4085,PAYLOAD,2024-05-09 18:49:20,15.08845501,0.0001032,53.2167,316.9517,93.9394,266.1716,0.00010308,1.353e-05,0.0,0 STARLINK-4085,1 53262U 22086W   24130.78426263  .00001353  00000-0  10308-3 0  9991,2 53262  53.2167 316.9517 0001032  93.9394 266.1716 15.08845501 99902,6917.864,95.437,540.442,539.015,0.0
53262.0,STARLINK-4085,PAYLOAD,2024-05-10 05:57:02,15.08847593,0.0001152,53.2178,314.8704,88.0248,272.0876,0.00016145,2.283e-05,0.0,0 STARLINK-4085,1 53262U 22086W   24131.24794114  .00002283  00000-0  16145-3 0  9994,2 53262  53.2178 314.8704 0001152  88.0248 272.0876 15.08847593100151,6917.857,95.437,540.519,538.925,0.0
53262.0,STARLINK-4085,PAYLOAD,2024-05-10 21:50:52,15.08858135,0.0001085,53.2179,311.8967,86.0277,274.0839,0.0001453,2.026e-05,0.0,0 STARLINK-4085,1 53262U 22086W   24131.91033326  .00002026  00000-0  14530-3 0  9990,2 53262  53.2179 311.8967 0001085  86.0277 274.0839 15.08858135100251,6917.825,95.436,540.441,538.939,0.0
53262.0,STARLINK-4085,PAYLOAD,2024-05-11 20:06:17,15.08797103,0.0001475,53.2188,307.7327,91.0714,269.0447,-0.0010935,-0.00017628,0.0,0 STARLINK-4085,1 53262U 22086W   24132.83770670 -.00017628  00000-0 -10935-2 0  9992,2 53262  53.2188 307.7327 0001475  91.0714 269.0447 15.08797103100212,6918.012,95.44,540.897,538.856,0.0
53262.0,STARLINK-4085,PAYLOAD,2024-05-12 12:00:13,15.08742635,0.0001732,53.2185,304.7601,92.3283,267.7907,-0.0015552,-0.00024888,0.0,0 STARLINK-4085,1 53262U 22086W   24133.50015506 -.00024888  00000-0 -15552-2 0  9993,2 53262  53.2185 304.7601 0001732  92.3283 267.7907 15.08742635100319,6918.178,95.444,541.241,538.845,0.0
53262.0,STARLINK-4085,PAYLOAD,2024-05-12 18:21:45,15.08795308,0.0001475,53.2177,303.5719,91.3167,268.7994,-0.00025529,-4.344e-05,0.0,0 STARLINK-4085,1 53262U 22086W   24133.76510996 -.00004344  00000-0 -25529-3 0  9995,2 53262  53.2177 303.5719 0001475  91.3167 268.7994 15.08795308100357,6918.017,95.44,540.902,538.862,0.0
53262.0,STARLINK-4085,PAYLOAD,2024-05-12 21:32:32,15.08793617,0.000155,53.2167,302.9763,94.0388,266.0782,-0.00012798,-2.322e-05,0.0,0 STARLINK-4085,1 53262U 22086W   24133.89759837 -.00002322  00000-0 -12798-3 0  9996,2 53262  53.2167 302.9763 0001550  94.0388 266.0782 15.08793617100556,6918.022,95.44,540.959,538.815,0.0
53262.0,STARLINK-4085,PAYLOAD,2024-05-13 03:54:04,15.0880635,0.0001271,53.2172,301.7865,89.0832,271.0305,0.00046378,7.094e-05,0.0,0 STARLINK-4085,1 53262U 22086W   24134.16255295  .00007094  00000-0  46378-3 0  9996,2 53262  53.2172 301.7865 0001271  89.0832 271.0305 15.08806350100411,6917.983,95.44,540.728,538.969,0.0
53262.0,STARLINK-4085,PAYLOAD,2024-05-13 18:12:33,15.08831402,6.93e-05,53.2158,299.1087,51.4944,308.611,0.0013122,0.00020652,0.0,0 STARLINK-4085,1 53262U 22086W   24134.75871605  .00020652  00000-0  13122-2 0  9995,2 53262  53.2158 299.1087 0000693  51.4944 308.6110 15.08831402100502,6917.907,95.438,540.251,539.292,0.0
53262.0,STARLINK-4085,PAYLOAD,2024-05-14 03:44:50,15.08852959,0.0001443,53.2152,297.3222,69.0097,291.1049,0.0011659,0.00018323,0.0,0 STARLINK-4085,1 53262U 22086W   24135.15614576  .00018323  00000-0  11659-2 0  9997,2 53262  53.2152 297.3222 0001443  69.0097 291.1049 15.08852959100568,6917.841,95.437,540.704,538.708,0.0
53262.0,STARLINK-4085,PAYLOAD,2024-05-15 03:35:35,15.08888443,0.0001652,53.217,292.8664,85.3678,274.7503,0.00051752,7.969e-05,0.0,0 STARLINK-4085,1 53262U 22086W   24136.14971143  .00007969  00000-0  51752-3 0  9996,2 53262  53.2170 292.8664 0001652  85.3678 274.7503 15.08888443100712,6917.732,95.434,540.74,538.455,0.0
53262.0,STARLINK-4085,PAYLOAD,2024-05-15 14:43:16,15.08852148,0.0001855,53.216,290.7821,89.4859,270.6346,-0.00044989,-7.444e-05,0.0,0 STARLINK-4085,1 53262U 22086W   24136.61339051 -.00007444  00000-0 -44989-3 0  9998,2 53262  53.2160 290.7821 0001855  89.4859 270.6346 15.08852148100964,6917.843,95.437,540.992,538.425,0.0
53262.0,STARLINK-4085,PAYLOAD,2024-05-15 17:54:03,15.08864033,0.0001307,53.2161,290.1905,101.2576,258.8563,-0.00016374,-2.895e-05,0.0,0 STARLINK-4085,1 53262U 22086W   24136.74586949 -.00002895  00000-0 -16374-3 0  9994,2 53262  53.2161 290.1905 0001307 101.2576 258.8563 15.08864033100801,6917.807,95.436,540.576,538.768,0.0
53262.0,STARLINK-4085,PAYLOAD,2024-05-16 03:26:22,15.08852996,0.0001807,53.2177,288.403,84.5066,275.6132,-0.00020693,-3.581e-05,0.0,0 STARLINK-4085,1 53262U 22086W   24137.14331242 -.00003581  00000-0 -20693-3 0  9995,2 53262  53.2177 288.4030 0001807  84.5066 275.6132 15.08852996100869,6917.841,95.437,540.956,538.456,0.0
53262.0,STARLINK-4085,PAYLOAD,2024-05-16 09:47:54,15.08853015,0.0002739,53.2172,287.2163,84.1745,275.9559,-0.00024292,-4.154e-05,0.0,0 STARLINK-4085,1 53262U 22086W   24137.40827291 -.00004154  00000-0 -24292-3 0  9994,2 53262  53.2172 287.2163 0002739  84.1745 275.9559 15.08853015101087,6917.841,95.437,541.6,537.811,0.0
53262.0,STARLINK-4085,PAYLOAD,2024-05-16 16:09:26,15.08864784,0.0002484,53.2131,286.0279,83.8,276.3275,8.9023e-05,1.13e-05,0.0,0 STARLINK-4085,1 53262U 22086W   24137.67322487  .00001130  00000-0  89023-4 0  9993,2 53262  53.2131 286.0279 0002484  83.8000 276.3275 15.08864784100943,6917.805,95.436,541.388,537.951,0.0
53262.0,STARLINK-4085,PAYLOAD,2024-05-17 03:17:08,15.08856062,6.67e-05,53.2167,283.9423,120.3955,239.7103,0.00051662,7.947e-05,0.0,0 STARLINK-4085,1 53262U 22086W   24138.13690094  .00007947  00000-0  51662-3 0  9996,2 53262  53.2167 283.9423 0000667 120.3955 239.7103 15.08856062101018,6917.831,95.437,540.158,539.235,0.0
